SENTINEL-1A             
1 39634U 14016A   26192.98461859 -.00000120  00000+0 -15805-4 0  9994
2 39634  98.1785 200.1551 0001436  87.0298 273.1066 14.59199566653630
SENTINEL-1C             
1 62261U 24235A   26192.95544734 -.00000076  00000+0 -63356-5 0  9996
2 62261  98.1824 199.9115 0001306  89.4569 270.6780 14.59197458 85025
SENTINEL-1D             
1 66315U 25251A   26192.44131303 -.00000021  00000+0  52765-5 0  9998
2 66315  98.1832 199.4596 0001398  91.6632 268.4727 14.59198074 36266
