{"fetched_at":"2026-07-12T07:15:57.848Z","source":"https://celestrak.org/NORAD/elements/gp.php?NAME=SENTINEL&FORMAT=JSON","constellation":"sentinel-1","records":[{"OBJECT_NAME":"SENTINEL-1A","OBJECT_ID":"2014-016A","EPOCH":"2026-07-11T23:37:51.046176","CLASSIFICATION_TYPE":"U","MEAN_MOTION":14.59199566,"ECCENTRICITY":0.00014361,"INCLINATION":98.1785,"RA_OF_ASC_NODE":200.1551,"ARG_OF_PERICENTER":87.0298,"MEAN_ANOMALY":273.1066,"EPHEMERIS_TYPE":0,"NORAD_CAT_ID":39634,"ELEMENT_SET_NO":999,"REV_AT_EPOCH":65363,"BSTAR":-0.000015805266,"MEAN_MOTION_DOT":-0.0000012,"MEAN_MOTION_DDOT":0},{"OBJECT_NAME":"SENTINEL-1C","OBJECT_ID":"2024-235A","EPOCH":"2026-07-11T22:55:50.650176","CLASSIFICATION_TYPE":"U","MEAN_MOTION":14.59197458,"ECCENTRICITY":0.00013065,"INCLINATION":98.1824,"RA_OF_ASC_NODE":199.9115,"ARG_OF_PERICENTER":89.4569,"MEAN_ANOMALY":270.678,"EPHEMERIS_TYPE":0,"NORAD_CAT_ID":62261,"ELEMENT_SET_NO":999,"REV_AT_EPOCH":8502,"BSTAR":-0.000006335574,"MEAN_MOTION_DOT":-7.6e-7,"MEAN_MOTION_DDOT":0},{"OBJECT_NAME":"SENTINEL-1D","OBJECT_ID":"2025-251A","EPOCH":"2026-07-11T10:35:29.445792","CLASSIFICATION_TYPE":"U","MEAN_MOTION":14.59198074,"ECCENTRICITY":0.00013983,"INCLINATION":98.1832,"RA_OF_ASC_NODE":199.4596,"ARG_OF_PERICENTER":91.6632,"MEAN_ANOMALY":268.4727,"EPHEMERIS_TYPE":0,"NORAD_CAT_ID":66315,"ELEMENT_SET_NO":999,"REV_AT_EPOCH":3626,"BSTAR":0.000005276457,"MEAN_MOTION_DOT":-2.1e-7,"MEAN_MOTION_DDOT":0}]}
